0 SL-14 R/B
1 19196U 88046B   13282.36248946 -.00000040  00000-0 -16532-3 0  1561
2 19196 073.6006 184.7966 0021193 332.0160 165.8705 12.41393356149511
0 SL-14 R/B
1 19196U 88046B   13286.85912377  .00000002  00000-0  14501-3 0  1587
2 19196 073.5993 178.7628 0021293 325.8267 101.1522 12.41392945150078
0 SL-14 R/B
1 19196U 88046B   13288.87444801 -.00000014  00000-0  28500-4 0  1593
2 19196 073.5991 176.0587 0021318 323.0596 107.5470 12.41393125150325
0 SL-14 R/B
1 19196U 88046B   13291.15178522 -.00000005  00000-0  91029-4 0  1600
2 19196 073.5991 173.0038 0021288 319.8283 204.9725 12.41393181150603
0 SL-14 R/B
1 19196U 88046B   13293.16796334 -.00000035  00000-0 -13071-3 0  1615
2 19196 073.5989 170.2984 0021327 316.9655 215.2796 12.41393468150852
0 SL-14 R/B
1 19196U 88046B   13295.17643147 -.00000013  00000-0  31246-4 0  1622
2 19196 073.5979 167.6029 0021364 314.3091 190.9394 12.41393059151106
